ONEWEB-0199             
1 48234U 21031AA  24216.10433086  .00000233  00000+0  59486-3 0  9990
2 48234  87.8923  65.5712 0001775  78.6954 281.4376 13.14501474158527
ONEWEB-0203             
1 48235U 21031AB  24215.94256877  .00000076  00000+0  17069-3 0  9999
2 48235  87.8924  65.6050 0001456  71.3159 288.8128 13.14505144158511
ONEWEB-0197             
1 48236U 21031AC  24215.61351960 -.00000342  00000+0 -95585-3 0  9990
2 48236  87.8926  65.6796 0002158  84.4840 275.6536 13.14502557158380
ONEWEB-0194             
1 48237U 21031AD  24215.66823529  .00000125  00000+0  30396-3 0  9997
2 48237  87.8929  65.6620 0001709  74.7933 285.3385 13.14501106158565
ONEWEB-0193             
1 48238U 21031AE  24215.60796967 -.00000167  00000+0 -48387-3 0  9994
2 48238  87.8927  65.6821 0001633  83.6947 276.4369 13.14500772158502
ONEWEB-0191             
1 48239U 21031AF  24215.84742238 -.00000444  00000+0 -12334-2 0  9993
2 48239  87.8922  65.6165 0001672  83.8415 276.2905 13.14502346158394
ONEWEB-0195             
1 48240U 21031AG  24215.59608012  .00000048  00000+0  94729-4 0  9996
2 48240  87.8925  65.6659 0001525  96.6514 263.4790 13.14501219158349
ONEWEB-0201             
1 48241U 21031AH  24215.58497687  .00000241  00000+0  61451-3 0  9990
2 48241  87.8928  65.7043 0001716  89.0192 271.1135 13.14504130158570
